{
    "links": {
        "self": "http://www.neowsapp.com/rest/v1/neo/3555789?api_key=iIulBulltgU6a56xZRHN4H3l9WmuAYTsLGpBGhQ2"
    },
    "id": "3555789",
    "neo_reference_id": "3555789",
    "name": "(2011 BL24)",
    "designation": "2011 BL24",
    "nasa_jpl_url": "http://ssd.jpl.nasa.gov/sbdb.cgi?sstr=3555789",
    "absolute_magnitude_h": 20.2,
    "estimated_diameter": {
        "kilometers": {
            "estimated_diameter_min": 0.2424124811,
            "estimated_diameter_max": 0.5420507863
        },
        "meters": {
            "estimated_diameter_min": 242.4124811008,
            "estimated_diameter_max": 542.0507863358
        },
        "miles": {
            "estimated_diameter_min": 0.1506280858,
            "estimated_diameter_max": 0.3368146392
        },
        "feet": {
            "estimated_diameter_min": 795.3165644948,
            "estimated_diameter_max": 1778.3819018419
        }
    },
    "is_potentially_hazardous_asteroid": false,
    "close_approach_data": [
        {
            "close_approach_date": "2008-11-07",
            "close_approach_date_full": "2008-Nov-07 23:06",
            "epoch_date_close_approach": 1226099160000,
            "relative_velocity": {
                "kilometers_per_second": "8.5685274484",
                "kilometers_per_hour": "30846.6988143971",
                "miles_per_hour": "19166.9390494236"
            },
            "miss_distance": {
                "astronomical": "1.7296223321",
                "lunar": "672.8230871869",
                "kilometers": "258747816.786592627",
                "miles": "160778437.9559551726"
            },
            "orbiting_body": "Juptr"
        },
        {
            "close_approach_date": "2011-01-11",
            "close_approach_date_full": "2011-Jan-11 22:09",
            "epoch_date_close_approach": 1294783740000,
            "relative_velocity": {
                "kilometers_per_second": "20.9834183513",
                "kilometers_per_hour": "75540.3060645619",
                "miles_per_hour": "46937.8085099496"
            },
            "miss_distance": {
                "astronomical": "0.4008989507",
                "lunar": "155.9496918223",
                "kilometers": "59973629.109955009",
                "miles": "37265885.0868727642"
            },
            "orbiting_body": "Earth"
        }
    ],
    "orbital_data": {
        "orbit_id": "10",
        "orbit_determination_date": "2017-04-06 08:54:48",
        "first_observation_date": "2011-01-28",
        "last_observation_date": "2011-03-02",
        "data_arc_in_days": 33,
        "observations_used": 29,
        "orbit_uncertainty": "7",
        "minimum_orbit_intersection": ".280506",
        "jupiter_tisserand_invariant": "2.920",
        "epoch_osculation": "2459000.5",
        "eccentricity": ".5315227516417866",
        "semi_major_axis": "2.686569061428822",
        "inclination": "36.09577486599086",
        "ascending_node_longitude": "108.6546590349222",
        "orbital_period": "1608.405096326024",
        "perihelion_distance": "1.258596481422482",
        "perihelion_argument": "350.0861193972813",
        "aphelion_distance": "4.114541641435162",
        "perihelion_time": "2458794.460781058433",
        "mean_anomaly": "46.11656540282986",
        "mean_motion": ".223824209971931",
        "equinox": "J2000",
        "orbit_class": {
            "orbit_class_type": "AMO",
            "orbit_class_description": "Near-Earth asteroid orbits similar to that of 1221 Amor",
            "orbit_class_range": "1.017 AU < q (perihelion) < 1.3 AU"
        }
    },
    "is_sentry_object": false
}